HIMAWARI-8              
1 40267U 14060A   23308.60674420 -.00000273  00000+0  00000+0 0  9996
2 40267   0.0324 103.8206 0001157 111.7564 187.1151  1.00274154 33171
